{
  "norad_id": 64178,
  "name": "STARLINK-34227",
  "history": [
    {
      "epoch": "2026-04-13T05:32:19.922496Z",
      "apogee_km": 475.9884324656259,
      "perigee_km": 474.4895991309704,
      "latitude_deg": -6.632840719993202e-05,
      "longitude_deg": 6.175197846676773,
      "height_km": 475.99894130544544,
      "semi_major_axis_km": 6853.376015798298,
      "eccentricity": 0.00010935,
      "inclination_deg": 53.1593,
      "raan_deg": 290.6828,
      "arg_perigee_deg": 79.3617,
      "mean_anomaly_deg": 280.7506,
      "mean_motion_rev_day": 15.3019198
    },
    {
      "epoch": "2026-04-14T11:19:19.652736Z",
      "apogee_km": 475.8880478177334,
      "perigee_km": 474.43912300796546,
      "latitude_deg": 1.6222694879733535e-05,
      "longitude_deg": -87.56097044101176,
      "height_km": 475.90196717561963,
      "semi_major_axis_km": 6853.30058541285,
      "eccentricity": 0.00010571,
      "inclination_deg": 53.1566,
      "raan_deg": 284.9186,
      "arg_perigee_deg": 77.2685,
      "mean_anomaly_deg": 282.8434,
      "mean_motion_rev_day": 15.30217243
    },
    {
      "epoch": "2026-04-15T18:40:22.382112Z",
      "apogee_km": 475.68398772815726,
      "perigee_km": 474.66147391631876,
      "latitude_deg": -3.388546045723537e-05,
      "longitude_deg": 154.81809228899075,
      "height_km": 475.69497263337905,
      "semi_major_axis_km": 6853.309730822238,
      "eccentricity": 7.46e-05,
      "inclination_deg": 53.1566,
      "raan_deg": 278.8466,
      "arg_perigee_deg": 42.5736,
      "mean_anomaly_deg": 317.5322,
      "mean_motion_rev_day": 15.3021418
    },
    {
      "epoch": "2026-04-16T15:03:04.152096Z",
      "apogee_km": 476.11584027427216,
      "perigee_km": 474.32163174258403,
      "latitude_deg": -1.0363332304200687e-05,
      "longitude_deg": -155.63363594122788,
      "height_km": 476.31229251402857,
      "semi_major_axis_km": 6853.355736008428,
      "eccentricity": 0.0001309,
      "inclination_deg": 53.1578,
      "raan_deg": 274.9058,
      "arg_perigee_deg": 102.6022,
      "mean_anomaly_deg": 257.5125,
      "mean_motion_rev_day": 15.30198772
    },
    {
      "epoch": "2026-04-17T20:50:04.811136Z",
      "apogee_km": 475.8288908629229,
      "perigee_km": 474.5448521023618,
      "latitude_deg": 4.577027021719135e-06,
      "longitude_deg": 110.62606534527093,
      "height_km": 476.0578626866465,
      "semi_major_axis_km": 6853.323871482642,
      "eccentricity": 9.368e-05,
      "inclination_deg": 53.158,
      "raan_deg": 269.1414,
      "arg_perigee_deg": 87.5609,
      "mean_anomaly_deg": 272.5499,
      "mean_motion_rev_day": 15.30209444
    },
    {
      "epoch": "2026-04-18T14:04:39.813888Z",
      "apogee_km": 475.812401420626,
      "perigee_km": 474.5335737769392,
      "latitude_deg": -2.550546265200461e-05,
      "longitude_deg": -152.0676488819149,
      "height_km": 475.8929552395028,
      "semi_major_axis_km": 6853.309987598782,
      "eccentricity": 9.33e-05,
      "inclination_deg": 53.1573,
      "raan_deg": 265.8017,
      "arg_perigee_deg": 73.8054,
      "mean_anomaly_deg": 286.3049,
      "mean_motion_rev_day": 15.30214094
    },
    {
      "epoch": "2026-04-19T19:51:40.681152Z",
      "apogee_km": 475.82037074811706,
      "perigee_km": 474.70600787733565,
      "latitude_deg": 1.1333998785911609e-05,
      "longitude_deg": 114.19399599241054,
      "height_km": 476.1574406696989,
      "semi_major_axis_km": 6853.400189312726,
      "eccentricity": 8.13e-05,
      "inclination_deg": 53.159,
      "raan_deg": 260.0401,
      "arg_perigee_deg": 89.5557,
      "mean_anomaly_deg": 270.5537,
      "mean_motion_rev_day": 15.30183884
    },
    {
      "epoch": "2026-04-20T09:58:09.734880Z",
      "apogee_km": 475.97346513285083,
      "perigee_km": 474.49889335960415,
      "latitude_deg": -4.8462569602163455e-05,
      "longitude_deg": -100.7384047627458,
      "height_km": 476.1929660121658,
      "semi_major_axis_km": 6853.373179246227,
      "eccentricity": 0.00010758,
      "inclination_deg": 53.1586,
      "raan_deg": 257.3082,
      "arg_perigee_deg": 94.558,
      "mean_anomaly_deg": 265.5543,
      "mean_motion_rev_day": 15.3019293
    },
    {
      "epoch": "2026-04-21T15:45:10.031904Z",
      "apogee_km": 475.90029096330545,
      "perigee_km": 474.448759582252,
      "latitude_deg": -2.1403047750360267e-05,
      "longitude_deg": 165.51991336200373,
      "height_km": 476.4212014253964,
      "semi_major_axis_km": 6853.311525272778,
      "eccentricity": 0.0001059,
      "inclination_deg": 53.1587,
      "raan_deg": 251.5409,
      "arg_perigee_deg": 118.6775,
      "mean_anomaly_deg": 241.4332,
      "mean_motion_rev_day": 15.30213579
    },
    {
      "epoch": "2026-04-22T15:15:58.391136Z",
      "apogee_km": 476.6336802339629,
      "perigee_km": 473.7511698777853,
      "latitude_deg": -8.285347019212236e-06,
      "longitude_deg": 167.30576150581987,
      "height_km": 476.34044157334074,
      "semi_major_axis_km": 6853.329425055874,
      "eccentricity": 0.0002103,
      "inclination_deg": 53.1606,
      "raan_deg": 246.9939,
      "arg_perigee_deg": 100.0302,
      "mean_anomaly_deg": 260.0936,
      "mean_motion_rev_day": 15.30207584
    },
    {
      "epoch": "2026-04-23T08:30:33.589152Z",
      "apogee_km": 476.21083388186435,
      "perigee_km": 474.1804655510605,
      "latitude_deg": 5.150020087310981e-05,
      "longitude_deg": -95.38780325244007,
      "height_km": 476.3854728404727,
      "semi_major_axis_km": 6853.332649716463,
      "eccentricity": 0.00014813,
      "inclination_deg": 53.1593,
      "raan_deg": 243.6551,
      "arg_perigee_deg": 106.7186,
      "mean_anomaly_deg": 253.3978,
      "mean_motion_rev_day": 15.30206504
    },
    {
      "epoch": "2026-04-24T17:25:40.326816Z",
      "apogee_km": 475.7276144104444,
      "perigee_km": 474.6722005266929,
      "latitude_deg": 4.824640361717083e-05,
      "longitude_deg": 123.11290259205836,
      "height_km": 476.38080032897966,
      "semi_major_axis_km": 6853.336907468568,
      "eccentricity": 7.7e-05,
      "inclination_deg": 53.1611,
      "raan_deg": 237.2858,
      "arg_perigee_deg": 122.2879,
      "mean_anomaly_deg": 237.8197,
      "mean_motion_rev_day": 15.30205078
    },
    {
      "epoch": "2026-04-25T16:56:28.064832Z",
      "apogee_km": 475.817241467902,
      "perigee_km": 474.622016071844,
      "latitude_deg": -3.2960908239837576e-05,
      "longitude_deg": 124.89617810574623,
      "height_km": 476.16131210762194,
      "semi_major_axis_km": 6853.356628769872,
      "eccentricity": 8.72e-05,
      "inclination_deg": 53.161,
      "raan_deg": 232.7337,
      "arg_perigee_deg": 94.1223,
      "mean_anomaly_deg": 265.9877,
      "mean_motion_rev_day": 15.30198473
    },
    {
      "epoch": "2026-04-26T14:53:13.017984Z",
      "apogee_km": 476.0086193135421,
      "perigee_km": 474.35272069811435,
      "latitude_deg": -1.7543734123084596e-05,
      "longitude_deg": 150.56280230346061,
      "height_km": 475.9421688889178,
      "semi_major_axis_km": 6853.3176700058275,
      "eccentricity": 0.00012081,
      "inclination_deg": 53.159,
      "raan_deg": 228.4889,
      "arg_perigee_deg": 80.5046,
      "mean_anomaly_deg": 279.6091,
      "mean_motion_rev_day": 15.30211521
    },
    {
      "epoch": "2026-04-27T19:06:10.806624Z",
      "apogee_km": 475.8189172467137,
      "perigee_km": 474.5962805702684,
      "latitude_deg": 9.486853341678888e-06,
      "longitude_deg": 80.69904521213876,
      "height_km": 476.12241778526936,
      "semi_major_axis_km": 6853.344598908491,
      "eccentricity": 8.92e-05,
      "inclination_deg": 53.1583,
      "raan_deg": 223.0247,
      "arg_perigee_deg": 91.539,
      "mean_anomaly_deg": 268.5713,
      "mean_motion_rev_day": 15.30202502
    },
    {
      "epoch": "2026-04-28T17:02:55.311360Z",
      "apogee_km": 475.89229246303694,
      "perigee_km": 474.45583846371574,
      "latitude_deg": -2.7418067555906216e-05,
      "longitude_deg": 106.36770428660536,
      "height_km": 475.87953852586406,
      "semi_major_axis_km": 6853.3110654633765,
      "eccentricity": 0.0001048,
      "inclination_deg": 53.1585,
      "raan_deg": 218.7801,
      "arg_perigee_deg": 74.4281,
      "mean_anomaly_deg": 285.6835,
      "mean_motion_rev_day": 15.30213733
    },
    {
      "epoch": "2026-04-29T13:25:35.859648Z",
      "apogee_km": 475.93589669944413,
      "perigee_km": 474.5752241404989,
      "latitude_deg": -4.3590999803182276e-05,
      "longitude_deg": 155.91414953322922,
      "height_km": 475.7704563014279,
      "semi_major_axis_km": 6853.392560419971,
      "eccentricity": 9.927e-05,
      "inclination_deg": 53.1582,
      "raan_deg": 214.8324,
      "arg_perigee_deg": 55.6786,
      "mean_anomaly_deg": 304.4308,
      "mean_motion_rev_day": 15.30186439
    },
    {
      "epoch": "2026-04-30T12:56:24.974016Z",
      "apogee_km": 476.04639790499186,
      "perigee_km": 474.4158445615876,
      "latitude_deg": 3.5723073201202003e-06,
      "longitude_deg": 157.69797033439713,
      "height_km": 476.32823076153556,
      "semi_major_axis_km": 6853.3681212332895,
      "eccentricity": 0.00011896,
      "inclination_deg": 53.1592,
      "raan_deg": 210.2865,
      "arg_perigee_deg": 104.1257,
      "mean_anomaly_deg": 255.9876,
      "mean_motion_rev_day": 15.30194624
    },
    {
      "epoch": "2026-05-02T08:49:54.762816Z",
      "apogee_km": 475.94263493812014,
      "perigee_km": 474.54454529773557,
      "latitude_deg": 1.1025095240996913e-05,
      "longitude_deg": -150.9742107819396,
      "height_km": 476.0661551159588,
      "semi_major_axis_km": 6853.380590117928,
      "eccentricity": 0.000102,
      "inclination_deg": 53.1576,
      "raan_deg": 201.791,
      "arg_perigee_deg": 83.7919,
      "mean_anomaly_deg": 276.3198,
      "mean_motion_rev_day": 15.30190448
    }
  ]
}